STARLINK-35944          
1 66928U 25286D   25358.25002315 -.02026245  00000+0 -22755-1 0  9999
2 66928  53.1593 352.9286 0001471  86.9183 121.9740 15.65324449  3844
STARLINK-36169          
1 66929U 25286E   25358.25002315 -.02030739  00000+0 -22810-1 0  9995
2 66929  53.1597 352.9171 0001503  90.2722 124.3699 15.65326961  3846
STARLINK-36206          
1 66930U 25286F   25358.25002315 -.02025361  00000+0 -22743-1 0  9997
2 66930  53.1595 352.9126 0001534  91.5213 125.0367 15.65324499  3843
STARLINK-36130          
1 66931U 25286G   25358.25002315 -.02035473  00000+0 -22869-1 0  9992
2 66931  53.1592 352.9089 0001435  92.0254 126.4501 15.65330034  3847
STARLINK-36177          
1 66932U 25286H   25358.25002315 -.02039205  00000+0 -22914-1 0  9991
2 66932  53.1592 352.9041 0001509  91.4503 128.9416 15.65332347  3849
STARLINK-36157          
1 66933U 25286J   25358.25002315 -.02022297  00000+0 -22706-1 0  9994
2 66933  53.1594 352.9004 0001559  94.0001 128.3087 15.65322357  3846
STARLINK-36153          
1 66934U 25286K   25358.25002315 -.02032536  00000+0 -22832-1 0  9992
2 66934  53.1596 352.8968 0001466  93.3286 130.8973 15.65328192  3846
STARLINK-36127          
1 66935U 25286L   25358.25002315 -.02027940  00000+0 -22777-1 0  9994
2 66935  53.1594 352.8920 0001444  89.5409 136.6038 15.65324894  3844
STARLINK-36160          
1 66936U 25286M   25358.25002315 -.02035744  00000+0 -22870-1 0  9990
2 66936  53.1592 352.8887 0001403  89.0174 139.0387 15.65332473  3840
STARLINK-36165          
1 66937U 25286N   25358.25002315 -.02025988  00000+0 -22751-1 0  9998
2 66937  53.1594 352.8845 0001518  92.6923 137.2828 15.65325165  3846
STARLINK-36155          
1 66938U 25286P   25358.25002315 -.02028257  00000+0 -22780-1 0  9993
2 66938  53.1595 352.8800 0001403  91.3211 140.5724 15.65326153  3848
STARLINK-36154          
1 66939U 25286Q   25358.25002315 -.02023661  00000+0 -22723-1 0  9995
2 66939  53.1593 352.8717 0001494  90.4306 145.2968 15.65322875  3848
