CCSDS_OMM_VERS = 2.0
CREATION_DATE  = 
ORIGINATOR     = 

OBJECT_NAME    = STARLINK-35944
OBJECT_ID      = 2025-286D
CENTER_NAME    = EARTH
REF_FRAME      = TEME
TIME_SYSTEM    = UTC
MEAN_ELEMENT_THEORY = SGP/SGP4

EPOCH          = 2025-12-24T06:00:02.000160
MEAN_MOTION    = 15.65324449
ECCENTRICITY   = .00014714
INCLINATION    = 53.1593
RA_OF_ASC_NODE = 352.9286
ARG_OF_PERICENTER = 86.9183
MEAN_ANOMALY   = 121.9740

EPHEMERIS_TYPE = 0
CLASSIFICATION_TYPE = U
NORAD_CAT_ID   = 66928
ELEMENT_SET_NO = 999
REV_AT_EPOCH   = 384
BSTAR          = -.22755225E-1
MEAN_MOTION_DOT = -.2026245E-1
MEAN_MOTION_DDOT = 0

CCSDS_OMM_VERS = 2.0
CREATION_DATE  = 
ORIGINATOR     = 

OBJECT_NAME    = STARLINK-36169
OBJECT_ID      = 2025-286E
CENTER_NAME    = EARTH
REF_FRAME      = TEME
TIME_SYSTEM    = UTC
MEAN_ELEMENT_THEORY = SGP/SGP4

EPOCH          = 2025-12-24T06:00:02.000160
MEAN_MOTION    = 15.65326961
ECCENTRICITY   = .00015039
INCLINATION    = 53.1597
RA_OF_ASC_NODE = 352.9171
ARG_OF_PERICENTER = 90.2722
MEAN_ANOMALY   = 124.3699

EPHEMERIS_TYPE = 0
CLASSIFICATION_TYPE = U
NORAD_CAT_ID   = 66929
ELEMENT_SET_NO = 999
REV_AT_EPOCH   = 384
BSTAR          = -.22810179E-1
MEAN_MOTION_DOT = -.2030739E-1
MEAN_MOTION_DDOT = 0

CCSDS_OMM_VERS = 2.0
CREATION_DATE  = 
ORIGINATOR     = 

OBJECT_NAME    = STARLINK-36206
OBJECT_ID      = 2025-286F
CENTER_NAME    = EARTH
REF_FRAME      = TEME
TIME_SYSTEM    = UTC
MEAN_ELEMENT_THEORY = SGP/SGP4

EPOCH          = 2025-12-24T06:00:02.000160
MEAN_MOTION    = 15.65324499
ECCENTRICITY   = .00015349
INCLINATION    = 53.1595
RA_OF_ASC_NODE = 352.9126
ARG_OF_PERICENTER = 91.5213
MEAN_ANOMALY   = 125.0367

EPHEMERIS_TYPE = 0
CLASSIFICATION_TYPE = U
NORAD_CAT_ID   = 66930
ELEMENT_SET_NO = 999
REV_AT_EPOCH   = 384
BSTAR          = -.22743195E-1
MEAN_MOTION_DOT = -.2025361E-1
MEAN_MOTION_DDOT = 0

CCSDS_OMM_VERS = 2.0
CREATION_DATE  = 
ORIGINATOR     = 

OBJECT_NAME    = STARLINK-36130
OBJECT_ID      = 2025-286G
CENTER_NAME    = EARTH
REF_FRAME      = TEME
TIME_SYSTEM    = UTC
MEAN_ELEMENT_THEORY = SGP/SGP4

EPOCH          = 2025-12-24T06:00:02.000160
MEAN_MOTION    = 15.65330034
ECCENTRICITY   = .00014351
INCLINATION    = 53.1592
RA_OF_ASC_NODE = 352.9089
ARG_OF_PERICENTER = 92.0254
MEAN_ANOMALY   = 126.4501

EPHEMERIS_TYPE = 0
CLASSIFICATION_TYPE = U
NORAD_CAT_ID   = 66931
ELEMENT_SET_NO = 999
REV_AT_EPOCH   = 384
BSTAR          = -.22868758E-1
MEAN_MOTION_DOT = -.2035473E-1
MEAN_MOTION_DDOT = 0

CCSDS_OMM_VERS = 2.0
CREATION_DATE  = 
ORIGINATOR     = 

OBJECT_NAME    = STARLINK-36177
OBJECT_ID      = 2025-286H
CENTER_NAME    = EARTH
REF_FRAME      = TEME
TIME_SYSTEM    = UTC
MEAN_ELEMENT_THEORY = SGP/SGP4

EPOCH          = 2025-12-24T06:00:02.000160
MEAN_MOTION    = 15.65332347
ECCENTRICITY   = .00015092
INCLINATION    = 53.1592
RA_OF_ASC_NODE = 352.9041
ARG_OF_PERICENTER = 91.4503
MEAN_ANOMALY   = 128.9416

EPHEMERIS_TYPE = 0
CLASSIFICATION_TYPE = U
NORAD_CAT_ID   = 66932
ELEMENT_SET_NO = 999
REV_AT_EPOCH   = 384
BSTAR          = -.22913744E-1
MEAN_MOTION_DOT = -.2039205E-1
MEAN_MOTION_DDOT = 0

CCSDS_OMM_VERS = 2.0
CREATION_DATE  = 
ORIGINATOR     = 

OBJECT_NAME    = STARLINK-36157
OBJECT_ID      = 2025-286J
CENTER_NAME    = EARTH
REF_FRAME      = TEME
TIME_SYSTEM    = UTC
MEAN_ELEMENT_THEORY = SGP/SGP4

EPOCH          = 2025-12-24T06:00:02.000160
MEAN_MOTION    = 15.65322357
ECCENTRICITY   = .0001559
INCLINATION    = 53.1594
RA_OF_ASC_NODE = 352.9004
ARG_OF_PERICENTER = 94.0001
MEAN_ANOMALY   = 128.3087

EPHEMERIS_TYPE = 0
CLASSIFICATION_TYPE = U
NORAD_CAT_ID   = 66933
ELEMENT_SET_NO = 999
REV_AT_EPOCH   = 384
BSTAR          = -.22705671E-1
MEAN_MOTION_DOT = -.2022297E-1
MEAN_MOTION_DDOT = 0

CCSDS_OMM_VERS = 2.0
CREATION_DATE  = 
ORIGINATOR     = 

OBJECT_NAME    = STARLINK-36153
OBJECT_ID      = 2025-286K
CENTER_NAME    = EARTH
REF_FRAME      = TEME
TIME_SYSTEM    = UTC
MEAN_ELEMENT_THEORY = SGP/SGP4

EPOCH          = 2025-12-24T06:00:02.000160
MEAN_MOTION    = 15.65328192
ECCENTRICITY   = .00014668
INCLINATION    = 53.1596
RA_OF_ASC_NODE = 352.8968
ARG_OF_PERICENTER = 93.3286
MEAN_ANOMALY   = 130.8973

EPHEMERIS_TYPE = 0
CLASSIFICATION_TYPE = U
NORAD_CAT_ID   = 66934
ELEMENT_SET_NO = 999
REV_AT_EPOCH   = 384
BSTAR          = -.22832472E-1
MEAN_MOTION_DOT = -.2032536E-1
MEAN_MOTION_DDOT = 0

CCSDS_OMM_VERS = 2.0
CREATION_DATE  = 
ORIGINATOR     = 

OBJECT_NAME    = STARLINK-36127
OBJECT_ID      = 2025-286L
CENTER_NAME    = EARTH
REF_FRAME      = TEME
TIME_SYSTEM    = UTC
MEAN_ELEMENT_THEORY = SGP/SGP4

EPOCH          = 2025-12-24T06:00:02.000160
MEAN_MOTION    = 15.65324894
ECCENTRICITY   = .00014444
INCLINATION    = 53.1594
RA_OF_ASC_NODE = 352.8920
ARG_OF_PERICENTER = 89.5409
MEAN_ANOMALY   = 136.6038

EPHEMERIS_TYPE = 0
CLASSIFICATION_TYPE = U
NORAD_CAT_ID   = 66935
ELEMENT_SET_NO = 999
REV_AT_EPOCH   = 384
BSTAR          = -.22776818E-1
MEAN_MOTION_DOT = -.202794E-1
MEAN_MOTION_DDOT = 0

CCSDS_OMM_VERS = 2.0
CREATION_DATE  = 
ORIGINATOR     = 

OBJECT_NAME    = STARLINK-36160
OBJECT_ID      = 2025-286M
CENTER_NAME    = EARTH
REF_FRAME      = TEME
TIME_SYSTEM    = UTC
MEAN_ELEMENT_THEORY = SGP/SGP4

EPOCH          = 2025-12-24T06:00:02.000160
MEAN_MOTION    = 15.65332473
ECCENTRICITY   = .00014035
INCLINATION    = 53.1592
RA_OF_ASC_NODE = 352.8887
ARG_OF_PERICENTER = 89.0174
MEAN_ANOMALY   = 139.0387

EPHEMERIS_TYPE = 0
CLASSIFICATION_TYPE = U
NORAD_CAT_ID   = 66936
ELEMENT_SET_NO = 999
REV_AT_EPOCH   = 384
BSTAR          = -.22870317E-1
MEAN_MOTION_DOT = -.2035744E-1
MEAN_MOTION_DDOT = 0

CCSDS_OMM_VERS = 2.0
CREATION_DATE  = 
ORIGINATOR     = 

OBJECT_NAME    = STARLINK-36165
OBJECT_ID      = 2025-286N
CENTER_NAME    = EARTH
REF_FRAME      = TEME
TIME_SYSTEM    = UTC
MEAN_ELEMENT_THEORY = SGP/SGP4

EPOCH          = 2025-12-24T06:00:02.000160
MEAN_MOTION    = 15.65325165
ECCENTRICITY   = .0001518
INCLINATION    = 53.1594
RA_OF_ASC_NODE = 352.8845
ARG_OF_PERICENTER = 92.6923
MEAN_ANOMALY   = 137.2828

EPHEMERIS_TYPE = 0
CLASSIFICATION_TYPE = U
NORAD_CAT_ID   = 66937
ELEMENT_SET_NO = 999
REV_AT_EPOCH   = 384
BSTAR          = -.22750792E-1
MEAN_MOTION_DOT = -.2025988E-1
MEAN_MOTION_DDOT = 0

CCSDS_OMM_VERS = 2.0
CREATION_DATE  = 
ORIGINATOR     = 

OBJECT_NAME    = STARLINK-36155
OBJECT_ID      = 2025-286P
CENTER_NAME    = EARTH
REF_FRAME      = TEME
TIME_SYSTEM    = UTC
MEAN_ELEMENT_THEORY = SGP/SGP4

EPOCH          = 2025-12-24T06:00:02.000160
MEAN_MOTION    = 15.65326153
ECCENTRICITY   = .00014034
INCLINATION    = 53.1595
RA_OF_ASC_NODE = 352.8800
ARG_OF_PERICENTER = 91.3211
MEAN_ANOMALY   = 140.5724

EPHEMERIS_TYPE = 0
CLASSIFICATION_TYPE = U
NORAD_CAT_ID   = 66938
ELEMENT_SET_NO = 999
REV_AT_EPOCH   = 384
BSTAR          = -.22780142E-1
MEAN_MOTION_DOT = -.2028257E-1
MEAN_MOTION_DDOT = 0

CCSDS_OMM_VERS = 2.0
CREATION_DATE  = 
ORIGINATOR     = 

OBJECT_NAME    = STARLINK-36154
OBJECT_ID      = 2025-286Q
CENTER_NAME    = EARTH
REF_FRAME      = TEME
TIME_SYSTEM    = UTC
MEAN_ELEMENT_THEORY = SGP/SGP4

EPOCH          = 2025-12-24T06:00:02.000160
MEAN_MOTION    = 15.65322875
ECCENTRICITY   = .0001494
INCLINATION    = 53.1593
RA_OF_ASC_NODE = 352.8717
ARG_OF_PERICENTER = 90.4306
MEAN_ANOMALY   = 145.2968

EPHEMERIS_TYPE = 0
CLASSIFICATION_TYPE = U
NORAD_CAT_ID   = 66939
ELEMENT_SET_NO = 999
REV_AT_EPOCH   = 384
BSTAR          = -.2272333E-1
MEAN_MOTION_DOT = -.2023661E-1
MEAN_MOTION_DDOT = 0

